NORAD_CAT_ID,OBJECT_NAME,OBJECT_TYPE,EPOCH,MEAN_MOTION,ECCENTRICITY,INCLINATION,RA_OF_ASC_NODE,ARG_OF_PERICENTER,MEAN_ANOMALY,BSTAR,MEAN_MOTION_DOT,MEAN_MOTION_DDOT,TLE_LINE0,TLE_LINE1,TLE_LINE2,SEMIMAJOR_AXIS,PERIOD,APOGEE,PERIGEE,DECAYED
55311.0,STARLINK-5312,PAYLOAD,2024-03-20 05:52:17,14.98340001,0.000286,70.0019,18.542,267.5043,92.5789,0.00011304,1.256e-05,0.0,0 STARLINK-5312,1 55311U 23010AU  24080.24465260  .00001256  00000-0  11304-3 0  9990,2 55311  70.0019  18.5420 0002860 267.5043  92.5789 14.98340001 66874,6950.162,96.106,574.015,570.039,0.0
55311.0,STARLINK-5312,PAYLOAD,2024-03-20 20:17:31,14.98317535,0.0002357,70.0053,17.031,285.2229,74.867,0.00013192,1.481e-05,0.0,0 STARLINK-5312,1 55311U 23010AU  24080.84550615  .00001481  00000-0  13192-3 0  9992,2 55311  70.0053  17.0310 0002357 285.2229  74.8670 14.98317535 65774,6950.231,96.108,573.735,570.458,0.0
55311.0,STARLINK-5312,PAYLOAD,2024-03-20 21:53:39,14.98314749,0.0002681,70.0053,16.8624,276.9724,83.113,9.1201e-05,9.95e-06,0.0,0 STARLINK-5312,1 55311U 23010AU  24080.91226848  .00000995  00000-0  91201-4 0  9995,2 55311  70.0053  16.8624 0002681 276.9724  83.1130 14.98314749 66977,6950.24,96.108,573.968,570.242,0.0
55311.0,STARLINK-5312,PAYLOAD,2024-03-21 12:18:52,14.98334768,0.0002628,70.0031,15.3443,269.4939,90.5918,-0.00014876,-1.868e-05,0.0,0 STARLINK-5312,1 55311U 23010AU  24081.51310248 -.00001868  00000-0 -14876-3 0  9994,2 55311  70.0031  15.3443 0002628 269.4939  90.5918 14.98334768 65879,6950.178,96.107,573.87,570.217,0.0
55311.0,STARLINK-5312,PAYLOAD,2024-03-21 21:55:40,14.98331364,0.0002738,70.0023,14.3342,270.389,89.6956,-5.0066e-05,-6.9e-06,0.0,0 STARLINK-5312,1 55311U 23010AU  24081.91366179 -.00000690  00000-0 -50066-4 0  9996,2 55311  70.0023  14.3342 0002738 270.3890  89.6956 14.98331364 67126,6950.189,96.107,573.957,570.151,0.0
55311.0,STARLINK-5312,PAYLOAD,2024-03-22 04:20:11,14.98341979,0.0002536,70.0022,13.6613,267.4567,92.6302,6.1008e-05,6.35e-06,0.0,0 STARLINK-5312,1 55311U 23010AU  24082.18069083  .00000635  00000-0  61008-4 0  9995,2 55311  70.0022  13.6613 0002536 267.4567  92.6302 14.98341979 65975,6950.156,96.106,573.783,570.258,0.0
55311.0,STARLINK-5312,PAYLOAD,2024-03-22 05:56:19,14.98342659,0.0002624,70.0022,13.4927,268.8616,91.2243,8.991e-05,9.8e-06,0.0,0 STARLINK-5312,1 55311U 23010AU  24082.24744916  .00000980  00000-0  89910-4 0  9992,2 55311  70.0022  13.4927 0002624 268.8616  91.2243 14.98342659 67178,6950.154,96.106,573.842,570.195,0.0
55311.0,STARLINK-5312,PAYLOAD,2024-03-22 21:57:41,14.98326585,0.0002631,70.0,11.8062,259.796,100.2902,-1.6248e-05,-2.87e-06,0.0,0 STARLINK-5312,1 55311U 23010AU  24082.91506165 -.00000287  00000-0 -16248-4 0  9994,2 55311  70.0000  11.8062 0002631 259.7960 100.2902 14.98326585 66087,6950.203,96.107,573.897,570.24,0.0
55311.0,STARLINK-5312,PAYLOAD,2024-03-23 04:22:13,14.98332392,0.0002376,70.0031,11.139,245.6017,114.4894,8.9907e-05,9.8e-06,0.0,0 STARLINK-5312,1 55311U 23010AU  24083.18209607  .00000980  00000-0  89907-4 0  9995,2 55311  70.0031  11.1390 0002376 245.6017 114.4894 14.98332392 66126,6950.185,96.107,573.702,570.399,0.0
55311.0,STARLINK-5312,PAYLOAD,2024-03-23 21:59:42,14.98330306,0.0002443,70.0037,9.2885,236.3377,123.7549,-2.0618e-05,-3.39e-06,0.0,0 STARLINK-5312,1 55311U 23010AU  24083.91645945 -.00000339  00000-0 -20618-4 0  9999,2 55311  70.0037   9.2885 0002443 236.3377 123.7549 14.98330306 67427,6950.192,96.107,573.755,570.359,0.0
55311.0,STARLINK-5312,PAYLOAD,2024-03-24 04:24:13,14.98337173,0.000287,70.0022,8.6138,264.6219,95.4613,5.6638e-05,5.83e-06,0.0,0 STARLINK-5312,1 55311U 23010AU  24084.18349305  .00000583  00000-0  56638-4 0  9990,2 55311  70.0022   8.6138 0002870 264.6219  95.4613 14.98337173 66276,6950.171,96.107,574.03,570.041,0.0
55311.0,STARLINK-5312,PAYLOAD,2024-03-24 22:01:43,14.98321684,0.0002746,70.0017,6.762,267.619,92.4655,4.1419e-06,-4.4e-07,0.0,0 STARLINK-5312,1 55311U 23010AU  24084.91786581 -.00000044  00000-0  41419-5 0  9997,2 55311  70.0017   6.7620 0002746 267.6190  92.4655 14.98321684 66383,6950.219,96.108,573.992,570.175,0.0
55311.0,STARLINK-5312,PAYLOAD,2024-03-25 12:26:56,14.98313643,0.0002677,70.0025,5.2473,260.818,99.2677,-0.00012048,-1.53e-05,0.0,0 STARLINK-5312,1 55311U 23010AU  24085.51871512 -.00001530  00000-0 -12048-3 0  9999,2 55311  70.0025   5.2473 0002677 260.8180  99.2677 14.98313643 66474,6950.243,96.108,573.969,570.248,0.0
55311.0,STARLINK-5312,PAYLOAD,2024-03-25 22:03:46,14.98311206,0.0002935,70.001,4.2361,264.4588,95.6236,-0.00021447,-2.65e-05,0.0,0 STARLINK-5312,1 55311U 23010AU  24085.91928354 -.00002650  00000-0 -21447-3 0  9997,2 55311  70.0010   4.2361 0002935 264.4588  95.6236 14.98311206 67725,6950.251,96.108,574.156,570.076,0.0
55311.0,STARLINK-5312,PAYLOAD,2024-03-26 04:28:18,14.98311411,0.0002743,70.0017,3.5636,262.6198,97.4649,-0.00016003,-2.001e-05,0.0,0 STARLINK-5312,1 55311U 23010AU  24086.18632586 -.00002001  00000-0 -16003-3 0  9998,2 55311  70.0017   3.5636 0002743 262.6198  97.4649 14.98311411 67763,6950.25,96.108,574.022,570.209,0.0
55311.0,STARLINK-5312,PAYLOAD,2024-03-26 20:29:38,14.98325257,0.000331,69.9997,1.8788,264.481,95.5972,1.9324e-05,1.38e-06,0.0,0 STARLINK-5312,1 55311U 23010AU  24086.85391610  .00000138  00000-0  19324-4 0  9999,2 55311  69.9997   1.8788 0003310 264.4810  95.5972 14.98325257 66678,6950.208,96.107,574.373,569.772,0.0
55311.0,STARLINK-5312,PAYLOAD,2024-03-26 22:05:46,14.98326976,0.0003011,69.9999,1.7105,258.7839,101.2982,2.251e-05,1.76e-06,0.0,0 STARLINK-5312,1 55311U 23010AU  24086.92067534  .00000176  00000-0  22510-4 0  9995,2 55311  69.9999   1.7105 0003011 258.7839 101.2982 14.98326976 67875,6950.202,96.107,574.16,569.975,0.0
55311.0,STARLINK-5312,PAYLOAD,2024-03-27 04:30:17,14.98339165,0.0002883,70.0008,1.038,261.9811,98.1021,0.00018851,2.158e-05,0.0,0 STARLINK-5312,1 55311U 23010AU  24087.18770298  .00002158  00000-0  18851-3 0  9996,2 55311  70.0008   1.0380 0002883 261.9811  98.1021 14.98339165 66724,6950.165,96.106,574.033,570.026,0.0
55311.0,STARLINK-5312,PAYLOAD,2024-03-27 10:54:50,14.98343286,0.000266,70.0019,0.3663,262.2699,97.8158,-9.0469e-05,-1.173e-05,0.0,0 STARLINK-5312,1 55311U 23010AU  24087.45474719 -.00001173  00000-0 -90469-4 0  9999,2 55311  70.0019   0.3663 0002660 262.2699  97.8158 14.98343286 67955,6950.152,96.106,573.866,570.168,0.0
55311.0,STARLINK-5312,PAYLOAD,2024-03-27 20:31:38,14.98327555,0.000285,70.0012,359.3546,266.4514,93.6319,0.00028151,3.267e-05,0.0,0 STARLINK-5312,1 55311U 23010AU  24087.85530766  .00003267  00000-0  28151-3 0  9990,2 55311  70.0012 359.3546 0002850 266.4514  93.6319 14.98327555 66827,6950.2,96.107,574.046,570.085,0.0
55311.0,STARLINK-5312,PAYLOAD,2024-03-27 22:07:46,14.98332632,0.0002548,70.001,359.1862,267.5245,92.5623,0.00018228,2.083e-05,0.0,0 STARLINK-5312,1 55311U 23010AU  24087.92206797  .00002083  00000-0  18228-3 0  9991,2 55311  70.0010 359.1862 0002548 267.5245  92.5623 14.98332632 68023,6950.185,96.107,573.821,570.279,0.0
55311.0,STARLINK-5312,PAYLOAD,2024-03-28 02:56:10,14.98353747,0.0002469,70.0014,358.6816,261.9761,98.1118,-6.9481e-05,-9.22e-06,0.0,0 STARLINK-5312,1 55311U 23010AU  24088.12233971 -.00000922  00000-0 -69481-4 0  9998,2 55311  70.0014 358.6816 0002469 261.9761  98.1118 14.98353747 66864,6950.119,96.105,573.7,570.268,0.0
55311.0,STARLINK-5312,PAYLOAD,2024-03-28 10:56:51,14.98325778,0.0002633,70.0015,357.8391,268.791,91.2947,0.00027854,3.232e-05,0.0,0 STARLINK-5312,1 55311U 23010AU  24088.45614870  .00003232  00000-0  27854-3 0  9997,2 55311  70.0015 357.8391 0002633 268.7910  91.2947 14.98325778 66911,6950.206,96.107,573.901,570.241,0.0
55311.0,STARLINK-5312,PAYLOAD,2024-03-28 22:09:47,14.98301767,0.0002711,70.0029,356.6603,276.4026,83.6825,0.00058641,6.906e-05,0.0,0 STARLINK-5312,1 55311U 23010AU  24088.92347154  .00006906  00000-0  58641-3 0  9996,2 55311  70.0029 356.6603 0002711 276.4026  83.6825 14.98301767 68172,6950.28,96.109,574.029,570.261,0.0
55311.0,STARLINK-5312,PAYLOAD,2024-03-29 10:58:51,14.98344753,0.0002884,70.0014,355.3135,271.5525,88.5303,-0.00025811,-3.172e-05,0.0,0 STARLINK-5312,1 55311U 23010AU  24089.45754511 -.00003172  00000-0 -25811-3 0  9991,2 55311  70.0014 355.3135 0002884 271.5525  88.5303 14.98344753 67067,6950.147,96.106,574.017,570.008,0.0
55311.0,STARLINK-5312,PAYLOAD,2024-03-29 17:23:24,14.9833068,0.0003093,70.0012,354.6402,270.9249,89.1556,-3.0357e-05,-4.55e-06,0.0,0 STARLINK-5312,1 55311U 23010AU  24089.72458633 -.00000455  00000-0 -30357-4 0  9990,2 55311  70.0012 354.6402 0003093 270.9249  89.1556 14.98330680 67109,6950.191,96.107,574.205,569.906,0.0
55311.0,STARLINK-5312,PAYLOAD,2024-03-29 22:11:48,14.98333332,0.0002976,70.0011,354.1359,270.4097,89.6721,-6.5843e-05,-8.79e-06,0.0,0 STARLINK-5312,1 55311U 23010AU  24089.92486549 -.00000879  00000-0 -65843-4 0  9997,2 55311  70.0011 354.1359 0002976 270.4097  89.6721 14.98333332 68320,6950.183,96.107,574.116,569.979,0.0
55311.0,STARLINK-5312,PAYLOAD,2024-03-30 11:00:52,14.98337022,0.000275,70.0024,352.7889,276.1065,83.9781,-0.00012139,-1.541e-05,0.0,0 STARLINK-5312,1 55311U 23010AU  24090.45894294 -.00001541  00000-0 -12139-3 0  9993,2 55311  70.0024 352.7889 0002750 276.1065  83.9781 14.98337022 68406,6950.171,96.107,573.947,570.125,0.0
55311.0,STARLINK-5312,PAYLOAD,2024-03-30 20:37:41,14.98327693,0.0002829,70.0016,351.7795,272.1454,87.9381,-1.0159e-05,-2.14e-06,0.0,0 STARLINK-5312,1 55311U 23010AU  24090.85950516 -.00000214  00000-0 -10159-4 0  9994,2 55311  70.0016 351.7795 0002829 272.1454  87.9381 14.98327693 67274,6950.2,96.107,574.031,570.099,0.0
55311.0,STARLINK-5312,PAYLOAD,2024-03-30 22:13:49,14.98326597,0.0002797,70.0019,351.6109,272.5155,87.5684,-2.0421e-05,-3.37e-06,0.0,0 STARLINK-5312,1 55311U 23010AU  24090.92626652 -.00000337  00000-0 -20421-4 0  9992,2 55311  70.0019 351.6109 0002797 272.5155  87.5684 14.98326597 68478,6950.203,96.107,574.012,570.124,0.0
